{
  "type": "FeatureCollection",
  "features": [
    {
      "type": "Feature",
      "properties": {
        "norad_id": 36036,
        "name": "SMOS",
        "group": "resource",
        "lat": 78.96656176741558,
        "lon": 119.13363470799904,
        "alt_km": 751.2128656308669,
        "timestamp": "2025-12-09T14:52:25.822644+00:00",
        "meta_object_name": "SMOS",
        "meta_object_id": "2009-059A",
        "meta_epoch": "2025-12-09T06:09:02.700000",
        "meta_mean_motion": 14.39736912,
        "meta_eccentricity": 0.00011102,
        "meta_inclination": 98.4383,
        "meta_ra_of_asc_node": 168.3563,
        "meta_arg_of_pericenter": 84.4936,
        "meta_mean_anomaly": 275.6379,
        "meta_ephemeris_type": 0,
        "meta_classification_type": "U",
        "meta_norad_cat_id": 36036,
        "meta_element_set_no": 999,
        "meta_rev_at_epoch": 84612,
        "meta_bstar": 0.00024324865,
        "meta_mean_motion_dot": 7.19e-06,
        "meta_mean_motion_ddot": 0,
        "tle_line1": "1 36036U 09059A   25343.25628125  .00000719  00000+0  24325-3 0  9994",
        "tle_line2": "2 36036  98.4383 168.3563 0001110  84.4936 275.6379 14.39736912846129"
      },
      "geometry": {
        "type": "Point",
        "coordinates": [
          119.13363470799904,
          78.96656176741558
        ]
      }
    },
    {
      "type": "Feature",
      "properties": {
        "norad_id": 36110,
        "name": "YAOGAN-7",
        "group": "resource",
        "lat": -21.454249798421294,
        "lon": 42.20729518729257,
        "alt_km": 641.9275231193205,
        "timestamp": "2025-12-09T14:52:25.822655+00:00",
        "meta_object_name": "YAOGAN-7",
        "meta_object_id": "2009-069A",
        "meta_epoch": "2025-12-09T05:50:11.994432",
        "meta_mean_motion": 14.77724948,
        "meta_eccentricity": 0.00234774,
        "meta_inclination": 98.0303,
        "meta_ra_of_asc_node": 225.0126,
        "meta_arg_of_pericenter": 293.2001,
        "meta_mean_anomaly": 66.6736,
        "meta_ephemeris_type": 0,
        "meta_classification_type": "U",
        "meta_norad_cat_id": 36110,
        "meta_element_set_no": 999,
        "meta_rev_at_epoch": 86157,
        "meta_bstar": 0.0001823082,
        "meta_mean_motion_dot": 1.259e-05,
        "meta_mean_motion_ddot": 0,
        "tle_line1": "1 36110U 09069A   25343.24319438  .00001259  00000+0  18231-3 0  9990",
        "tle_line2": "2 36110  98.0303 225.0126 0023477 293.2001  66.6736 14.77724948861578"
      },
      "geometry": {
        "type": "Point",
        "coordinates": [
          42.20729518729257,
          -21.454249798421294
        ]
      }
    },
    {
      "type": "Feature",
      "properties": {
        "norad_id": 36605,
        "name": "TANDEM-X",
        "group": "resource",
        "lat": -16.84813617782599,
        "lon": -8.683591135450708,
        "alt_km": 513.6597421175584,
        "timestamp": "2025-12-09T14:52:25.822666+00:00",
        "meta_object_name": "TANDEM-X",
        "meta_object_id": "2010-030A",
        "meta_epoch": "2025-12-08T13:39:18.929376",
        "meta_mean_motion": 15.19159019,
        "meta_eccentricity": 0.0002067,
        "meta_inclination": 97.4453,
        "meta_ra_of_asc_node": 348.0112,
        "meta_arg_of_pericenter": 89.3333,
        "meta_mean_anomaly": 270.8138,
        "meta_ephemeris_type": 0,
        "meta_classification_type": "U",
        "meta_norad_cat_id": 36605,
        "meta_element_set_no": 999,
        "meta_rev_at_epoch": 85770,
        "meta_bstar": 0.00014235,
        "meta_mean_motion_dot": 2.924e-05,
        "meta_mean_motion_ddot": 0,
        "tle_line1": "1 36605U 10030A   25342.56896909  .00002924  00000+0  14235-3 0  9996",
        "tle_line2": "2 36605  97.4453 348.0112 0002067  89.3333 270.8138 15.19159019857704"
      },
      "geometry": {
        "type": "Point",
        "coordinates": [
          -8.683591135450708,
          -16.84813617782599
        ]
      }
    },
    {
      "type": "Feature",
      "properties": {
        "norad_id": 36795,
        "name": "CARTOSAT-2B",
        "group": "resource",
        "lat": 61.113071635061566,
        "lon": -132.891169776747,
        "alt_km": 619.4782453866646,
        "timestamp": "2025-12-09T14:52:25.822676+00:00",
        "meta_object_name": "CARTOSAT-2B",
        "meta_object_id": "2010-035A",
        "meta_epoch": "2025-12-09T07:50:52.755072",
        "meta_mean_motion": 14.78782867,
        "meta_eccentricity": 0.00129544,
        "meta_inclination": 97.7852,
        "meta_ra_of_asc_node": 32.4683,
        "meta_arg_of_pericenter": 87.3964,
        "meta_mean_anomaly": 272.873,
        "meta_ephemeris_type": 0,
        "meta_classification_type": "U",
        "meta_norad_cat_id": 36795,
        "meta_element_set_no": 999,
        "meta_rev_at_epoch": 83179,
        "meta_bstar": 0.00019367598,
        "meta_mean_motion_dot": 1.375e-05,
        "meta_mean_motion_ddot": 0,
        "tle_line1": "1 36795U 10035A   25343.32699948  .00001375  00000+0  19368-3 0  9991",
        "tle_line2": "2 36795  97.7852  32.4683 0012954  87.3964 272.8730 14.78782867831799"
      },
      "geometry": {
        "type": "Point",
        "coordinates": [
          -132.891169776747,
          61.113071635061566
        ]
      }
    },
    {
      "type": "Feature",
      "properties": {
        "norad_id": 36834,
        "name": "YAOGAN-10",
        "group": "resource",
        "lat": 46.91060056705686,
        "lon": -167.9849017763847,
        "alt_km": 610.1808904152122,
        "timestamp": "2025-12-09T14:52:25.822686+00:00",
        "meta_object_name": "YAOGAN-10",
        "meta_object_id": "2010-038A",
        "meta_epoch": "2025-12-09T08:03:52.155648",
        "meta_mean_motion": 14.84583806,
        "meta_eccentricity": 0.00013793,
        "meta_inclination": 97.914,
        "meta_ra_of_asc_node": 3.1816,
        "meta_arg_of_pericenter": 81.5476,
        "meta_mean_anomaly": 335.4291,
        "meta_ephemeris_type": 0,
        "meta_classification_type": "U",
        "meta_norad_cat_id": 36834,
        "meta_element_set_no": 999,
        "meta_rev_at_epoch": 82903,
        "meta_bstar": 0.00015586066,
        "meta_mean_motion_dot": 1.262e-05,
        "meta_mean_motion_ddot": 0,
        "tle_line1": "1 36834U 10038A   25343.33602032  .00001262  00000+0  15586-3 0  9990",
        "tle_line2": "2 36834  97.9140   3.1816 0001379  81.5476 335.4291 14.84583806829032"
      },
      "geometry": {
        "type": "Point",
        "coordinates": [
          -167.9849017763847,
          46.91060056705686
        ]
      }
    },
    {
      "type": "Feature",
      "properties": {
        "norad_id": 37216,
        "name": "COSMO-SKYMED 4",
        "group": "resource",
        "lat": 79.38019783469746,
        "lon": 117.37023453925227,
        "alt_km": 614.1787580977752,
        "timestamp": "2025-12-09T14:52:25.822697+00:00",
        "meta_object_name": "COSMO-SKYMED 4",
        "meta_object_id": "2010-060A",
        "meta_epoch": "2025-12-09T06:24:00.829728",
        "meta_mean_motion": 14.8216199,
        "meta_eccentricity": 0.00013812,
        "meta_inclination": 97.8803,
        "meta_ra_of_asc_node": 164.6417,
        "meta_arg_of_pericenter": 79.7576,
        "meta_mean_anomaly": 280.3792,
        "meta_ephemeris_type": 0,
        "meta_classification_type": "U",
        "meta_norad_cat_id": 37216,
        "meta_element_set_no": 999,
        "meta_rev_at_epoch": 81643,
        "meta_bstar": 0.00014003585,
        "meta_mean_motion_dot": 1.063e-05,
        "meta_mean_motion_ddot": 0,
        "tle_line1": "1 37216U 10060A   25343.26667627  .00001063  00000+0  14004-3 0  9996",
        "tle_line2": "2 37216  97.8803 164.6417 0001381  79.7576 280.3792 14.82161990816433"
      },
      "geometry": {
        "type": "Point",
        "coordinates": [
          117.37023453925227,
          79.38019783469746
        ]
      }
    },
    {
      "type": "Feature",
      "properties": {
        "norad_id": 37387,
        "name": "RESOURCESAT-2",
        "group": "resource",
        "lat": 6.717551827102829,
        "lon": 46.141416084387224,
        "alt_km": 818.5270088823199,
        "timestamp": "2025-12-09T14:52:25.822707+00:00",
        "meta_object_name": "RESOURCESAT-2",
        "meta_object_id": "2011-015A",
        "meta_epoch": "2025-12-09T06:23:45.638016",
        "meta_mean_motion": 14.21595284,
        "meta_eccentricity": 0.00065875,
        "meta_inclination": 98.7881,
        "meta_ra_of_asc_node": 46.8338,
        "meta_arg_of_pericenter": 51.5946,
        "meta_mean_anomaly": 308.5822,
        "meta_ephemeris_type": 0,
        "meta_classification_type": "U",
        "meta_norad_cat_id": 37387,
        "meta_element_set_no": 999,
        "meta_rev_at_epoch": 75919,
        "meta_bstar": 0.00015514899,
        "meta_mean_motion_dot": 2.96e-06,
        "meta_mean_motion_ddot": 0,
        "tle_line1": "1 37387U 11015A   25343.26650044  .00000296  00000+0  15515-3 0  9996",
        "tle_line2": "2 37387  98.7881  46.8338 0006587  51.5946 308.5822 14.21595284759199"
      },
      "geometry": {
        "type": "Point",
        "coordinates": [
          46.141416084387224,
          6.717551827102829
        ]
      }
    }
  ]
}